{"fetched_at":"2026-07-15T17:46:46.517Z","source":"https://celestrak.org/NORAD/elements/gp.php?GROUP=oneweb&FORMAT=JSON","constellation":"oneweb","records":[{"OBJECT_NAME":"ONEWEB-0275","OBJECT_ID":"2021-060AC","EPOCH":"2026-07-15T02:53:14.207712","CLASSIFICATION_TYPE":"U","MEAN_MOTION":13.16595019,"ECCENTRICITY":0.0001995,"INCLINATION":87.908,"RA_OF_ASC_NODE":223.2274,"ARG_OF_PERICENTER":95.8787,"MEAN_ANOMALY":264.2571,"EPHEMERIS_TYPE":0,"NORAD_CAT_ID":48993,"ELEMENT_SET_NO":999,"REV_AT_EPOCH":24323,"BSTAR":-0.000034999,"MEAN_MOTION_DOT":-1e-8,"MEAN_MOTION_DDOT":0},{"OBJECT_NAME":"ONEWEB-0276","OBJECT_ID":"2021-060AD","EPOCH":"2026-07-15T03:41:08.154240","CLASSIFICATION_TYPE":"U","MEAN_MOTION":13.16594101,"ECCENTRICITY":0.0001893,"INCLINATION":87.9081,"RA_OF_ASC_NODE":223.2198,"ARG_OF_PERICENTER":94.9984,"MEAN_ANOMALY":265.1363,"EPHEMERIS_TYPE":0,"NORAD_CAT_ID":48994,"ELEMENT_SET_NO":999,"REV_AT_EPOCH":24325,"BSTAR":0.000091862,"MEAN_MOTION_DOT":4.8e-7,"MEAN_MOTION_DDOT":0},{"OBJECT_NAME":"ONEWEB-0277","OBJECT_ID":"2021-060AE","EPOCH":"2026-07-15T02:09:56.608992","CLASSIFICATION_TYPE":"U","MEAN_MOTION":13.16595333,"ECCENTRICITY":0.0002165,"INCLINATION":87.9075,"RA_OF_ASC_NODE":223.2394,"ARG_OF_PERICENTER":98.8574,"MEAN_ANOMALY":261.2802,"EPHEMERIS_TYPE":0,"NORAD_CAT_ID":48995,"ELEMENT_SET_NO":999,"REV_AT_EPOCH":24323,"BSTAR":0.00006764,"MEAN_MOTION_DOT":3.9e-7,"MEAN_MOTION_DDOT":0},{"OBJECT_NAME":"ONEWEB-0278","OBJECT_ID":"2021-060AF","EPOCH":"2026-07-15T03:45:41.863392","CLASSIFICATION_TYPE":"U","MEAN_MOTION":13.16593032,"ECCENTRICITY":0.0002205,"INCLINATION":87.908,"RA_OF_ASC_NODE":223.2186,"ARG_OF_PERICENTER":89.5719,"MEAN_ANOMALY":270.5664,"EPHEMERIS_TYPE":0,"NORAD_CAT_ID":48996,"ELEMENT_SET_NO":999,"REV_AT_EPOCH":24337,"BSTAR":0.00027358,"MEAN_MOTION_DOT":0.00000117,"MEAN_MOTION_DDOT":0},{"OBJECT_NAME":"ONEWEB-0279","OBJECT_ID":"2021-060AG","EPOCH":"2026-07-15T02:07:39.559584","CLASSIFICATION_TYPE":"U","MEAN_MOTION":13.16594315,"ECCENTRICITY":0.0002014,"INCLINATION":87.9082,"RA_OF_ASC_NODE":223.2298,"ARG_OF_PERICENTER":101.2979,"MEAN_ANOMALY":258.8379,"EPHEMERIS_TYPE":0,"NORAD_CAT_ID":48997,"ELEMENT_SET_NO":999,"REV_AT_EPOCH":24329,"BSTAR":0.00014004,"MEAN_MOTION_DOT":6.6e-7,"MEAN_MOTION_DDOT":0},{"OBJECT_NAME":"ONEWEB-0280","OBJECT_ID":"2021-060AH","EPOCH":"2026-07-15T02:29:18.512736","CLASSIFICATION_TYPE":"U","MEAN_MOTION":13.16594807,"ECCENTRICITY":0.0002434,"INCLINATION":87.9082,"RA_OF_ASC_NODE":223.2314,"ARG_OF_PERICENTER":94.9217,"MEAN_ANOMALY":265.2192,"EPHEMERIS_TYPE":0,"NORAD_CAT_ID":48998,"ELEMENT_SET_NO":999,"REV_AT_EPOCH":24323,"BSTAR":-0.00025732,"MEAN_MOTION_DOT":-8.6e-7,"MEAN_MOTION_DDOT":0},{"OBJECT_NAME":"ONEWEB-0281","OBJECT_ID":"2021-060AJ","EPOCH":"2026-07-15T02:37:17.649984","CLASSIFICATION_TYPE":"U","MEAN_MOTION":13.16593584,"ECCENTRICITY":0.0002094,"INCLINATION":87.908,"RA_OF_ASC_NODE":223.2258,"ARG_OF_PERICENTER":91.9869,"MEAN_ANOMALY":268.1502,"EPHEMERIS_TYPE":0,"NORAD_CAT_ID":48999,"ELEMENT_SET_NO":999,"REV_AT_EPOCH":24330,"BSTAR":-0.000052772,"MEAN_MOTION_DOT":-7e-8,"MEAN_MOTION_DDOT":0},{"OBJECT_NAME":"ONEWEB-0282","OBJECT_ID":"2021-060AK","EPOCH":"2026-07-15T03:20:36.625056","CLASSIFICATION_TYPE":"U","MEAN_MOTION":13.16594855,"ECCENTRICITY":0.0002163,"INCLINATION":87.9077,"RA_OF_ASC_NODE":223.2275,"ARG_OF_PERICENTER":96.4873,"MEAN_ANOMALY":263.6505,"EPHEMERIS_TYPE":0,"NORAD_CAT_ID":49000,"ELEMENT_SET_NO":999,"REV_AT_EPOCH":24328,"BSTAR":0.00012845,"MEAN_MOTION_DOT":6.2e-7,"MEAN_MOTION_DDOT":0},{"OBJECT_NAME":"ONEWEB-0283","OBJECT_ID":"2021-060AL","EPOCH":"2026-07-15T03:04:38.832672","CLASSIFICATION_TYPE":"U","MEAN_MOTION":13.16593404,"ECCENTRICITY":0.000202,"INCLINATION":87.9076,"RA_OF_ASC_NODE":223.229,"ARG_OF_PERICENTER":98.4814,"MEAN_ANOMALY":261.6546,"EPHEMERIS_TYPE":0,"NORAD_CAT_ID":49001,"ELEMENT_SET_NO":999,"REV_AT_EPOCH":24329,"BSTAR":0.00013363,"MEAN_MOTION_DOT":6.4e-7,"MEAN_MOTION_DDOT":0},{"OBJECT_NAME":"ONEWEB-0284","OBJECT_ID":"2021-060AM","EPOCH":"2026-07-15T02:55:32.401920","CLASSIFICATION_TYPE":"U","MEAN_MOTION":13.16593916,"ECCENTRICITY":0.0002389,"INCLINATION":87.9078,"RA_OF_ASC_NODE":223.2241,"ARG_OF_PERICENTER":91.4341,"MEAN_ANOMALY":268.7064,"EPHEMERIS_TYPE":0,"NORAD_CAT_ID":49002,"ELEMENT_SET_NO":999,"REV_AT_EPOCH":24327,"BSTAR":0.00016687,"MEAN_MOTION_DOT":7.7e-7,"MEAN_MOTION_DDOT":0},{"OBJECT_NAME":"ONEWEB-0285","OBJECT_ID":"2021-075A","EPOCH":"2026-07-14T21:17:04.178688","CLASSIFICATION_TYPE":"U","MEAN_MOTION":13.12441244,"ECCENTRICITY":0.0001794,"INCLINATION":87.8969,"RA_OF_ASC_NODE":345.1548,"ARG_OF_PERICENTER":89.999,"MEAN_ANOMALY":270.1345,"EPHEMERIS_TYPE":0,"NORAD_CAT_ID":49075,"ELEMENT_SET_NO":999,"REV_AT_EPOCH":23884,"BSTAR":0.0012746,"MEAN_MOTION_DOT":0.00000471,"MEAN_MOTION_DDOT":0},{"OBJECT_NAME":"ONEWEB-0286","OBJECT_ID":"2021-075B","EPOCH":"2026-07-14T22:41:01.411872","CLASSIFICATION_TYPE":"U","MEAN_MOTION":13.1244207,"ECCENTRICITY":0.0001758,"INCLINATION":87.896,"RA_OF_ASC_NODE":345.1574,"ARG_OF_PERICENTER":89.3734,"MEAN_ANOMALY":270.7596,"EPHEMERIS_TYPE":0,"NORAD_CAT_ID":49076,"ELEMENT_SET_NO":999,"REV_AT_EPOCH":23820,"BSTAR":0.0010768,"MEAN_MOTION_DOT":0.000004,"MEAN_MOTION_DDOT":0},{"OBJECT_NAME":"ONEWEB-0287","OBJECT_ID":"2021-075C","EPOCH":"2026-07-14T23:01:22.523808","CLASSIFICATION_TYPE":"U","MEAN_MOTION":13.17648968,"ECCENTRICITY":0.0001876,"INCLINATION":87.9142,"RA_OF_ASC_NODE":0.3404,"ARG_OF_PERICENTER":79.3625,"MEAN_ANOMALY":280.7718,"EPHEMERIS_TYPE":0,"NORAD_CAT_ID":49077,"ELEMENT_SET_NO":999,"REV_AT_EPOCH":23728,"BSTAR":-0.00031901,"MEAN_MOTION_DOT":-0.00000111,"MEAN_MOTION_DDOT":0},{"OBJECT_NAME":"ONEWEB-0288","OBJECT_ID":"2021-075D","EPOCH":"2026-07-14T22:07:03.118368","CLASSIFICATION_TYPE":"U","MEAN_MOTION":13.12443322,"ECCENTRICITY":0.0001966,"INCLINATION":87.8968,"RA_OF_ASC_NODE":345.1414,"ARG_OF_PERICENTER":89.1871,"MEAN_ANOMALY":270.9483,"EPHEMERIS_TYPE":0,"NORAD_CAT_ID":49078,"ELEMENT_SET_NO":999,"REV_AT_EPOCH":23882,"BSTAR":-0.00020852,"MEAN_MOTION_DOT":-6.2e-7,"MEAN_MOTION_DDOT":0},{"OBJECT_NAME":"ONEWEB-0289","OBJECT_ID":"2021-075E","EPOCH":"2026-07-14T23:57:15.945408","CLASSIFICATION_TYPE":"U","MEAN_MOTION":13.17649771,"ECCENTRICITY":0.0002278,"INCLINATION":87.9151,"RA_OF_ASC_NODE":0.351,"ARG_OF_PERICENTER":96.7154,"MEAN_ANOMALY":263.4237,"EPHEMERIS_TYPE":0,"NORAD_CAT_ID":49079,"ELEMENT_SET_NO":999,"REV_AT_EPOCH":23786,"BSTAR":-0.0000022928,"MEAN_MOTION_DOT":1.2e-7,"MEAN_MOTION_DDOT":0},{"OBJECT_NAME":"ONEWEB-0290","OBJECT_ID":"2021-075F","EPOCH":"2026-07-14T23:18:23.008896","CLASSIFICATION_TYPE":"U","MEAN_MOTION":13.17650988,"ECCENTRICITY":0.0002345,"INCLINATION":87.9154,"RA_OF_ASC_NODE":0.3287,"ARG_OF_PERICENTER":97.0601,"MEAN_ANOMALY":263.0797,"EPHEMERIS_TYPE":0,"NORAD_CAT_ID":49080,"ELEMENT_SET_NO":999,"REV_AT_EPOCH":23727,"BSTAR":0.00011461,"MEAN_MOTION_DOT":5.7e-7,"MEAN_MOTION_DDOT":0}]}
