ONEWEB-0275             
1 48993U 21060AC  26196.12030333 -.00000001  00000+0 -34999-4 0  9991
2 48993  87.9080 223.2274 0001995  95.8787 264.2571 13.16595019243238
ONEWEB-0276             
1 48994U 21060AD  26196.15356660  .00000048  00000+0  91862-4 0  9990
2 48994  87.9081 223.2198 0001893  94.9984 265.1363 13.16594101243253
ONEWEB-0277             
1 48995U 21060AE  26196.09023853  .00000039  00000+0  67640-4 0  9996
2 48995  87.9075 223.2394 0002165  98.8574 261.2802 13.16595333243237
ONEWEB-0278             
1 48996U 21060AF  26196.15673453  .00000117  00000+0  27358-3 0  9999
2 48996  87.9080 223.2186 0002205  89.5719 270.5664 13.16593032243374
ONEWEB-0279             
1 48997U 21060AG  26196.08865231  .00000066  00000+0  14004-3 0  9996
2 48997  87.9082 223.2298 0002014 101.2979 258.8379 13.16594315243297
ONEWEB-0280             
1 48998U 21060AH  26196.10368649 -.00000086  00000+0 -25732-3 0  9995
2 48998  87.9082 223.2314 0002434  94.9217 265.2192 13.16594807243231
ONEWEB-0281             
1 48999U 21060AJ  26196.10923206 -.00000007  00000+0 -52772-4 0  9990
2 48999  87.9080 223.2258 0002094  91.9869 268.1502 13.16593584243305
ONEWEB-0282             
1 49000U 21060AK  26196.13931279  .00000062  00000+0  12845-3 0  9991
2 49000  87.9077 223.2275 0002163  96.4873 263.6505 13.16594855243288
ONEWEB-0283             
1 49001U 21060AL  26196.12822723  .00000064  00000+0  13363-3 0  9992
2 49001  87.9076 223.2290 0002020  98.4814 261.6546 13.16593404243297
ONEWEB-0284             
1 49002U 21060AM  26196.12190280  .00000077  00000+0  16687-3 0  9995
2 49002  87.9078 223.2241 0002389  91.4341 268.7064 13.16593916243271
ONEWEB-0285             
1 49075U 21075A   26195.88685392  .00000471  00000+0  12746-2 0  9995
2 49075  87.8969 345.1548 0001794  89.9990 270.1345 13.12441244238842
ONEWEB-0286             
1 49076U 21075B   26195.94515523  .00000400  00000+0  10768-2 0  9995
2 49076  87.8960 345.1574 0001758  89.3734 270.7596 13.12442070238205
ONEWEB-0287             
1 49077U 21075C   26195.95928847 -.00000111  00000+0 -31901-3 0  9998
2 49077  87.9142   0.3404 0001876  79.3625 280.7718 13.17648968237283
ONEWEB-0288             
1 49078U 21075D   26195.92156387 -.00000062  00000+0 -20852-3 0  9996
2 49078  87.8968 345.1414 0001966  89.1871 270.9483 13.12443322238825
ONEWEB-0289             
1 49079U 21075E   26195.99810122  .00000012  00000+0 -22928-5 0  9990
2 49079  87.9151   0.3510 0002278  96.7154 263.4237 13.17649771237861
ONEWEB-0290             
1 49080U 21075F   26195.97109964  .00000057  00000+0  11461-3 0  9991
2 49080  87.9154   0.3287 0002345  97.0601 263.0797 13.17650988237277
